{
  "norad_id": 67402,
  "name": "CONNECTA IOT-15",
  "history": [
    {
      "epoch": "2026-03-28T21:07:23.759040",
      "apogee_km": 516.8493736307482,
      "perigee_km": 514.534563739644,
      "latitude_deg": -57.619502537786026,
      "longitude_deg": -75.30693439999595,
      "semi_major_axis_km": 6893.828968685196,
      "eccentricity": 0.00016789,
      "inclination_deg": 97.4576,
      "raan_deg": 87.9788,
      "arg_perigee_deg": 211.1815,
      "mean_anomaly_deg": 148.9319,
      "mean_motion_rev_day": 15.1674302
    },
    {
      "epoch": "2026-03-29T03:27:23.920704",
      "apogee_km": 516.8625945733429,
      "perigee_km": 514.507664933818,
      "latitude_deg": -28.008720179313404,
      "longitude_deg": -49.97342144022696,
      "semi_major_axis_km": 6893.82212975358,
      "eccentricity": 0.0001708,
      "inclination_deg": 97.4576,
      "raan_deg": 88.2383,
      "arg_perigee_deg": 209.6098,
      "mean_anomaly_deg": 150.5039,
      "mean_motion_rev_day": 15.16745277
    }
  ]
}